{"spkid": "50795008", "covariance": {"data": [["3.151457265668566E-14", "-3.138612382624688E-14", "1.569579744298857E-12", "-1.438488988806096E-13", "-2.040210658201588E-12", "9.623743220089813E-13"], ["-3.138612382624688E-14", "3.320547257305407E-14", "-1.95554532794441E-12", "3.326465751431006E-13", "8.602152871032374E-13", "-5.368081762683746E-13"], ["1.569579744298857E-12", "-1.95554532794441E-12", "1.029895336702046E-9", "-1.063995709248554E-10", "9.440041693795114E-10", "-4.707507058778886E-11"], ["-1.438488988806096E-13", "3.326465751431006E-13", "-1.063995709248554E-10", "1.409724831571262E-10", "-2.727585287725395E-10", "8.518856340342727E-12"], ["-2.040210658201588E-12", "8.602152871032374E-13", "9.440041693795114E-10", "-2.727585287725395E-10", "1.698223401887812E-9", "-2.975001047110563E-10"], ["9.623743220089813E-13", "-5.368081762683746E-13", "-4.707507058778886E-11", "8.518856340342727E-12", "-2.975001047110563E-10", "1.836073747855346E-10"]], "elements": [{"label": "e", "title": "eccentricity", "value": ".09437882804113142", "units": null, "name": "e", "sigma": 1.77523442555302e-07}, {"label": "q", "sigma": 1.82223688287374e-07, "name": "q", "title": "perihelion distance", "value": ".9350828390265673", "units": "au"}, {"title": "time of perihelion passage", "value": "2458403.428375853490", "units": "TDB", "name": "tp", "sigma": 3.20919824364598e-05, "label": "tp"}, {"label": "node", "units": "deg", "title": "longitude of the ascending node", "value": "107.7715404455405", "sigma": 1.18731833623981e-05, "name": "om"}, {"label": "peri", "value": "251.8744184121666", "title": "argument of perihelion", "units": "deg", "sigma": 4.12095062077649e-05, "name": "w"}, {"name": "i", "sigma": 1.35501798801911e-05, "title": "inclination", "value": "10.5847613136296", "units": "deg", "label": "i"}], "labels": ["e", "q", "tp", "node", "peri", "i"], "epoch": "2458335.5"}, "elements": [{"name": "e", "sigma": "1.7752E-7", "units": null, "title": "eccentricity", "value": ".09442024335166002", "label": "e"}, {"name": "a", "sigma": "4.8378E-8", "title": "semi-major axis", "value": "1.032710830519298", "units": "au", "label": "a"}, {"sigma": "1.8238E-7", "name": "q", "units": "au", "value": ".9352020225897707", "title": "perihelion distance", "label": "q"}, {"label": "i", "name": "i", "sigma": "1.3548E-5", "units": "deg", "value": "10.58525798933557", "title": "inclination; angle with respect to x-y ecliptic plane"}, {"label": "node", "sigma": "1.1872E-5", "name": "om", "value": "107.7405221054374", "title": "longitude of the ascending node", "units": "deg"}, {"name": "w", "sigma": "4.117E-5", "title": "argument of perihelion", "value": "252.0084967706764", "units": "deg", "label": "peri"}, {"title": "mean anomaly", "value": "106.5551759630006", "units": "deg", "sigma": ".00017974", "name": "ma", "label": "M"}, {"label": "tp", "name": "tp", "sigma": ".00018352", "value": "2461087.041098552060", "title": "time of perihelion passage", "units": "TDB"}, {"title": "sidereal orbital period", "value": "383.3244528209596", "units": "d", "sigma": "2.6935E-5", "name": "per", "label": "period"}, {"label": "n", "name": "n", "sigma": "6.5992E-8", "units": "deg/d", "value": ".9391521917025893", "title": "mean motion"}, {"label": "Q", "sigma": "5.2946E-8", "name": "ad", "units": "au", "value": "1.130219638448825", "title": "aphelion distance"}], "epoch": "2461200.5"}